{"type":"FeatureCollection","features":[{"type":"Feature","properties":{"name":"天山","kind":"山脉","source":"示例数据（简化走向，待补充）"},"geometry":{"type":"LineString","coordinates":[[78,42.4],[82,42.6],[86,43.3],[90,42.8],[94,42.5]]}},{"type":"Feature","properties":{"name":"昆仑山","kind":"山脉","source":"示例数据（简化走向，待补充）"},"geometry":{"type":"LineString","coordinates":[[74,36.4],[80,36.6],[86,36],[92,36],[98,36.5]]}},{"type":"Feature","properties":{"name":"阿尔泰山","kind":"山脉","source":"示例数据（简化走向，待补充）"},"geometry":{"type":"LineString","coordinates":[[86,49.2],[89,48],[91,46.8]]}},{"type":"Feature","properties":{"name":"祁连山","kind":"山脉","source":"示例数据（简化走向，待补充）"},"geometry":{"type":"LineString","coordinates":[[95,39.4],[99,38.8],[103,37.6]]}},{"type":"Feature","properties":{"name":"阴山","kind":"山脉","source":"示例数据（简化走向，待补充）"},"geometry":{"type":"LineString","coordinates":[[106,41.5],[110,41.3],[114,40.8]]}},{"type":"Feature","properties":{"name":"贺兰山","kind":"山脉","source":"示例数据（简化走向，待补充）"},"geometry":{"type":"LineString","coordinates":[[105.7,38.4],[106.1,39],[106.4,39.4]]}},{"type":"Feature","properties":{"name":"燕山","kind":"山脉","source":"示例数据（简化走向，待补充）"},"geometry":{"type":"LineString","coordinates":[[115,41.2],[117,40.9],[119,40.4]]}},{"type":"Feature","properties":{"name":"大兴安岭","kind":"山脉","source":"示例数据（简化走向，待补充）"},"geometry":{"type":"LineString","coordinates":[[121,43.6],[123,46.5],[126,48.8],[124,51.5]]}},{"type":"Feature","properties":{"name":"小兴安岭","kind":"山脉","source":"示例数据（简化走向，待补充）"},"geometry":{"type":"LineString","coordinates":[[126,47.2],[129,46.8],[131,46]]}},{"type":"Feature","properties":{"name":"长白山","kind":"山脉","source":"示例数据（简化走向，待补充）"},"geometry":{"type":"LineString","coordinates":[[126,43],[128,42.3],[129.5,41.4]]}},{"type":"Feature","properties":{"name":"太行山","kind":"山脉","source":"示例数据（简化走向，待补充）"},"geometry":{"type":"LineString","coordinates":[[112.4,35.3],[113.2,37],[114,38.8],[114.8,40.3]]}},{"type":"Feature","properties":{"name":"秦岭","kind":"山脉","source":"示例数据（简化走向，待补充）"},"geometry":{"type":"LineString","coordinates":[[105.2,34.2],[108,34.1],[110.5,33.9],[112,33.4]]}},{"type":"Feature","properties":{"name":"吕梁山","kind":"山脉","source":"示例数据（简化走向，待补充）"},"geometry":{"type":"LineString","coordinates":[[110.7,36.4],[111.1,37.6],[111.4,38.8]]}},{"type":"Feature","properties":{"name":"大巴山","kind":"山脉","source":"示例数据（简化走向，待补充）"},"geometry":{"type":"LineString","coordinates":[[106.2,32.8],[108.5,32.3],[110.8,31.9]]}},{"type":"Feature","properties":{"name":"大别山","kind":"山脉","source":"示例数据（简化走向，待补充）"},"geometry":{"type":"LineString","coordinates":[[114.3,31.3],[116,31.1],[117.3,30.7]]}},{"type":"Feature","properties":{"name":"巫山","kind":"山脉","source":"示例数据（简化走向，待补充）"},"geometry":{"type":"LineString","coordinates":[[109.2,30.3],[110,31.2],[110.6,31.8]]}},{"type":"Feature","properties":{"name":"武陵山","kind":"山脉","source":"示例数据（简化走向，待补充）"},"geometry":{"type":"LineString","coordinates":[[107.6,27.8],[109.6,29.2],[111.2,30.2]]}},{"type":"Feature","properties":{"name":"雪峰山","kind":"山脉","source":"示例数据（简化走向，待补充）"},"geometry":{"type":"LineString","coordinates":[[110.2,26.3],[110.9,27.6],[111.6,28.9]]}},{"type":"Feature","properties":{"name":"南岭","kind":"山脉","source":"示例数据（简化走向，待补充）"},"geometry":{"type":"LineString","coordinates":[[109.8,25.6],[112.5,25.2],[115.5,25.3],[116.5,24.9]]}},{"type":"Feature","properties":{"name":"武夷山","kind":"山脉","source":"示例数据（简化走向，待补充）"},"geometry":{"type":"LineString","coordinates":[[116.6,27.8],[117.8,27.2],[118.4,25.9]]}},{"type":"Feature","properties":{"name":"罗霄山","kind":"山脉","source":"示例数据（简化走向，待补充）"},"geometry":{"type":"LineString","coordinates":[[113.2,26.4],[113.9,27.6],[114.5,28.7]]}},{"type":"Feature","properties":{"name":"横断山脉","kind":"山脉","source":"示例数据（简化走向，待补充）"},"geometry":{"type":"LineString","coordinates":[[98.4,32],[99.5,30],[100.3,28],[101.2,25.6]]}},{"type":"Feature","properties":{"name":"乌蒙山","kind":"山脉","source":"示例数据（简化走向，待补充）"},"geometry":{"type":"LineString","coordinates":[[103.2,25.9],[104.4,26.8],[105.6,27.5]]}},{"type":"Feature","properties":{"name":"云开大山","kind":"山脉","source":"示例数据（简化走向，待补充）"},"geometry":{"type":"LineString","coordinates":[[110.3,22.4],[111.2,22],[111.8,21.4]]}},{"type":"Feature","properties":{"name":"五指山","kind":"山脉","source":"示例数据（简化走向，待补充）"},"geometry":{"type":"LineString","coordinates":[[109.4,18.9],[109.9,18.8],[110.3,18.9]]}}]}